<?xml version='1.0' encoding='utf-8'?>
<q:quakeml xmlns:q="http://quakeml.org/xmlns/quakeml/1.2" xmlns="http://quakeml.org/xmlns/bed/1.2">
  <eventParameters publicID="smi:local/f4e60429-2a7f-424d-8b71-5e9e22691a50">
    <event publicID="smi:local/8f750c9c-8c4f-4bf9-9a87-a4409914803e">
      <preferredOriginID>smi:local/6c9bad52-6685-49d4-8198-07f1778ef9a3</preferredOriginID>
      <preferredMagnitudeID>smi:local/3d860181-76af-4295-8dee-cccaece5b88c</preferredMagnitudeID>
      <description>
        <text>L </text>
      </description>
      <creationInfo>
        <agencyID>AKR</agencyID>
      </creationInfo>
      <origin publicID="smi:local/6c9bad52-6685-49d4-8198-07f1778ef9a3">
        <time>
          <value>2008-08-17T14:27:53.900000Z</value>
        </time>
        <latitude>
          <value>37.203</value>
        </latitude>
        <longitude>
          <value>-32.353</value>
        </longitude>
        <depth>
          <value>9500.0</value>
        </depth>
        <comment id="smi:local/838e7a76-b91c-4691-ae23-652bb6e6b789">
          <text>Number of stations=5</text>
        </comment>
        <arrival publicID="smi:local/ffdd4d04-65a0-4ecb-b101-884e3a659c36">
          <pickID>smi:local/f076ad42-20dd-4a0f-aeb5-0a00e2ab79db</pickID>
          <phase>P</phase>
          <azimuth>38.0</azimuth>
          <distance>0.07248532143704968</distance>
          <timeResidual>-0.07</timeResidual>
          <timeWeight>0.0</timeWeight>
        </arrival>
        <arrival publicID="smi:local/69aa2825-352f-4987-a172-6e2c02f0f1aa">
          <pickID>smi:local/7dd8d613-99c8-43c6-90cd-fc51aa7865a6</pickID>
          <phase>S</phase>
          <azimuth>38.0</azimuth>
          <distance>0.07248532143704968</distance>
          <timeResidual>-0.04</timeResidual>
          <timeWeight>0.0</timeWeight>
        </arrival>
        <arrival publicID="smi:local/9a1ac20b-0da5-4d8d-89cf-55eb9795f084">
          <pickID>smi:local/941409e8-027e-4b2a-a3c1-88e6e4c09b4f</pickID>
          <phase>P</phase>
          <azimuth>14.0</azimuth>
          <distance>0.09802605504514163</distance>
          <timeResidual>0.02</timeResidual>
          <timeWeight>0.0</timeWeight>
        </arrival>
        <arrival publicID="smi:local/4ea7e07f-8f78-4d5d-9785-cb2f972a0713">
          <pickID>smi:local/75dd70aa-6b8a-4e03-935f-75d44399cbe2</pickID>
          <phase>S</phase>
          <azimuth>14.0</azimuth>
          <distance>0.09802605504514163</distance>
          <timeResidual>0.27</timeResidual>
          <timeWeight>0.0</timeWeight>
        </arrival>
        <arrival publicID="smi:local/870cf285-f08c-49fe-8c2b-2acf479548c7">
          <pickID>smi:local/d131571e-a601-41bc-a9fe-5248c8f61cd6</pickID>
          <phase>P</phase>
          <azimuth>30.0</azimuth>
          <distance>0.10252266307473529</distance>
          <timeResidual>-0.17</timeResidual>
          <timeWeight>0.0</timeWeight>
        </arrival>
        <arrival publicID="smi:local/1ab42958-0bd1-4193-9f59-ba66a26303b5">
          <pickID>smi:local/2a1d24ab-f5e9-440d-b705-8c03593f79f3</pickID>
          <phase>S</phase>
          <azimuth>30.0</azimuth>
          <distance>0.10252266307473529</distance>
          <timeResidual>-0.17</timeResidual>
          <timeWeight>0.0</timeWeight>
        </arrival>
        <arrival publicID="smi:local/6d5d4b9c-bbd5-4a46-a2f6-22fbe93a4ce1">
          <pickID>smi:local/e56ea696-0a3e-4fdf-b2a9-8eb68de2cf0e</pickID>
          <phase>P</phase>
          <azimuth>48.0</azimuth>
          <distance>0.11960977358719117</distance>
          <timeResidual>0.08</timeResidual>
          <timeWeight>0.0</timeWeight>
        </arrival>
        <arrival publicID="smi:local/fcb331d3-b084-4915-bed0-0272c387f84e">
          <pickID>smi:local/04aac9bb-a981-4838-882e-f4abb8976606</pickID>
          <phase>S</phase>
          <azimuth>48.0</azimuth>
          <distance>0.11960977358719117</distance>
          <timeResidual>0.19</timeResidual>
          <timeWeight>0.0</timeWeight>
        </arrival>
        <arrival publicID="smi:local/849f6e9a-0344-41f3-b38f-d043442d2360">
          <pickID>smi:local/e11408bf-64e0-4e00-a161-f0e4a197b4e6</pickID>
          <phase>P</phase>
          <azimuth>27.0</azimuth>
          <distance>0.13220027607005339</distance>
          <timeResidual>0.1</timeResidual>
          <timeWeight>0.0</timeWeight>
        </arrival>
        <arrival publicID="smi:local/d7e7261a-d3f3-496d-bc7c-d597f36daacf">
          <pickID>smi:local/82a62c56-4745-4984-9e6e-719e6267580d</pickID>
          <phase>S</phase>
          <azimuth>27.0</azimuth>
          <distance>0.13220027607005339</distance>
          <timeResidual>-0.21</timeResidual>
          <timeWeight>0.0</timeWeight>
        </arrival>
      </origin>
      <magnitude publicID="smi:local/3d860181-76af-4295-8dee-cccaece5b88c">
        <mag>
          <value>1.1</value>
        </mag>
        <type>ML</type>
        <originID>smi:local/6c9bad52-6685-49d4-8198-07f1778ef9a3</originID>
        <creationInfo>
          <agencyID>AKR</agencyID>
        </creationInfo>
      </magnitude>
      <pick publicID="smi:local/f076ad42-20dd-4a0f-aeb5-0a00e2ab79db">
        <time>
          <value>2008-08-17T14:27:55.860000Z</value>
        </time>
        <waveformID channelCode="BZ" networkCode="NA" stationCode="LSb7"></waveformID>
        <onset>impulsive</onset>
        <phaseHint>P</phaseHint>
        <polarity>undecidable</polarity>
        <evaluationMode>manual</evaluationMode>
      </pick>
      <pick publicID="smi:local/7dd8d613-99c8-43c6-90cd-fc51aa7865a6">
        <time>
          <value>2008-08-17T14:27:57.610000Z</value>
        </time>
        <waveformID channelCode="BY" networkCode="NA" stationCode="LSb7"></waveformID>
        <onset>impulsive</onset>
        <phaseHint>S</phaseHint>
        <polarity>undecidable</polarity>
        <evaluationMode>manual</evaluationMode>
      </pick>
      <pick publicID="smi:local/6e22d10b-a418-483d-9087-25c4e32492a3">
        <time>
          <value>2008-08-17T14:27:58.300000Z</value>
        </time>
        <waveformID channelCode="BY" networkCode="NA" stationCode="LSb7"></waveformID>
        <phaseHint>AML</phaseHint>
        <polarity>undecidable</polarity>
        <evaluationMode>manual</evaluationMode>
      </pick>
      <pick publicID="smi:local/941409e8-027e-4b2a-a3c1-88e6e4c09b4f">
        <time>
          <value>2008-08-17T14:27:56.160000Z</value>
        </time>
        <waveformID channelCode="SZ" networkCode="NA" stationCode="LSb2"></waveformID>
        <onset>impulsive</onset>
        <phaseHint>P</phaseHint>
        <polarity>undecidable</polarity>
        <evaluationMode>manual</evaluationMode>
      </pick>
      <pick publicID="smi:local/75dd70aa-6b8a-4e03-935f-75d44399cbe2">
        <time>
          <value>2008-08-17T14:27:58.230000Z</value>
        </time>
        <waveformID channelCode="SY" networkCode="NA" stationCode="LSb2"></waveformID>
        <onset>impulsive</onset>
        <phaseHint>S</phaseHint>
        <polarity>undecidable</polarity>
        <evaluationMode>manual</evaluationMode>
      </pick>
      <pick publicID="smi:local/b7d08ec7-9954-49f6-ac8a-3b87fcc01281">
        <time>
          <value>2008-08-17T14:27:59.990000Z</value>
        </time>
        <waveformID channelCode="SY" networkCode="NA" stationCode="LSb2"></waveformID>
        <phaseHint>AML</phaseHint>
        <polarity>undecidable</polarity>
        <evaluationMode>manual</evaluationMode>
      </pick>
      <pick publicID="smi:local/b9371ba9-683f-480d-b4b2-42857aa553c9">
        <time>
          <value>2008-08-17T14:28:00.300000Z</value>
        </time>
        <waveformID channelCode="SX" networkCode="NA" stationCode="LSb2"></waveformID>
        <phaseHint>AML</phaseHint>
        <polarity>undecidable</polarity>
        <evaluationMode>manual</evaluationMode>
      </pick>
      <pick publicID="smi:local/d131571e-a601-41bc-a9fe-5248c8f61cd6">
        <time>
          <value>2008-08-17T14:27:56.270000Z</value>
        </time>
        <waveformID channelCode="SZ" networkCode="NA" stationCode="LSb3"></waveformID>
        <onset>impulsive</onset>
        <phaseHint>P</phaseHint>
        <polarity>undecidable</polarity>
        <evaluationMode>manual</evaluationMode>
      </pick>
      <pick publicID="smi:local/2a1d24ab-f5e9-440d-b705-8c03593f79f3">
        <time>
          <value>2008-08-17T14:27:58.360000Z</value>
        </time>
        <waveformID channelCode="SY" networkCode="NA" stationCode="LSb3"></waveformID>
        <onset>impulsive</onset>
        <phaseHint>S</phaseHint>
        <polarity>undecidable</polarity>
        <evaluationMode>manual</evaluationMode>
      </pick>
      <pick publicID="smi:local/2adfc201-5fba-4641-adcb-ca4ad43e883d">
        <time>
          <value>2008-08-17T14:27:59.380000Z</value>
        </time>
        <waveformID channelCode="SY" networkCode="NA" stationCode="LSb3"></waveformID>
        <phaseHint>AML</phaseHint>
        <polarity>undecidable</polarity>
        <evaluationMode>manual</evaluationMode>
      </pick>
      <pick publicID="smi:local/f23b3ea4-0fea-4563-a25b-2a9db8131f2a">
        <time>
          <value>2008-08-17T14:27:59.440000Z</value>
        </time>
        <waveformID channelCode="SX" networkCode="NA" stationCode="LSb3"></waveformID>
        <phaseHint>AML</phaseHint>
        <polarity>undecidable</polarity>
        <evaluationMode>manual</evaluationMode>
      </pick>
      <pick publicID="smi:local/e56ea696-0a3e-4fdf-b2a9-8eb68de2cf0e">
        <time>
          <value>2008-08-17T14:27:56.540000Z</value>
        </time>
        <waveformID channelCode="SZ" networkCode="NA" stationCode="LSb4"></waveformID>
        <onset>impulsive</onset>
        <phaseHint>P</phaseHint>
        <polarity>undecidable</polarity>
        <evaluationMode>manual</evaluationMode>
      </pick>
      <pick publicID="smi:local/04aac9bb-a981-4838-882e-f4abb8976606">
        <time>
          <value>2008-08-17T14:27:58.740000Z</value>
        </time>
        <waveformID channelCode="SY" networkCode="NA" stationCode="LSb4"></waveformID>
        <onset>impulsive</onset>
        <phaseHint>S</phaseHint>
        <polarity>undecidable</polarity>
        <evaluationMode>manual</evaluationMode>
      </pick>
      <pick publicID="smi:local/3f2e64e2-1873-436f-a123-9c53b0163fe9">
        <time>
          <value>2008-08-17T14:27:59.310000Z</value>
        </time>
        <waveformID channelCode="SX" networkCode="NA" stationCode="LSb4"></waveformID>
        <phaseHint>AML</phaseHint>
        <polarity>undecidable</polarity>
        <evaluationMode>manual</evaluationMode>
      </pick>
      <pick publicID="smi:local/a17c2bdd-574f-4cd9-bbc2-8bd3c7df0434">
        <time>
          <value>2008-08-17T14:27:59.900000Z</value>
        </time>
        <waveformID channelCode="SY" networkCode="NA" stationCode="LSb4"></waveformID>
        <phaseHint>AML</phaseHint>
        <polarity>undecidable</polarity>
        <evaluationMode>manual</evaluationMode>
      </pick>
      <pick publicID="smi:local/e11408bf-64e0-4e00-a161-f0e4a197b4e6">
        <time>
          <value>2008-08-17T14:27:56.770000Z</value>
        </time>
        <waveformID channelCode="SZ" networkCode="NA" stationCode="LSb1"></waveformID>
        <onset>impulsive</onset>
        <phaseHint>P</phaseHint>
        <polarity>undecidable</polarity>
        <evaluationMode>manual</evaluationMode>
      </pick>
      <pick publicID="smi:local/82a62c56-4745-4984-9e6e-719e6267580d">
        <time>
          <value>2008-08-17T14:27:58.970000Z</value>
        </time>
        <waveformID channelCode="SY" networkCode="NA" stationCode="LSb1"></waveformID>
        <onset>impulsive</onset>
        <phaseHint>S</phaseHint>
        <polarity>undecidable</polarity>
        <evaluationMode>manual</evaluationMode>
      </pick>
      <pick publicID="smi:local/71ac8661-f05f-4cc2-b902-65cdf94b3dbb">
        <time>
          <value>2008-08-17T14:28:00.660000Z</value>
        </time>
        <waveformID channelCode="SX" networkCode="NA" stationCode="LSb1"></waveformID>
        <phaseHint>AML</phaseHint>
        <polarity>undecidable</polarity>
        <evaluationMode>manual</evaluationMode>
      </pick>
      <pick publicID="smi:local/438f99fb-315d-4936-8ba1-2bfa838da10d">
        <time>
          <value>2008-08-17T14:28:04.270000Z</value>
        </time>
        <waveformID channelCode="SY" networkCode="NA" stationCode="LSb1"></waveformID>
        <phaseHint>AML</phaseHint>
        <polarity>undecidable</polarity>
        <evaluationMode>manual</evaluationMode>
      </pick>
      <amplitude publicID="smi:local/27f729c9-0b1f-4299-8acb-db10dd26f50c">
        <genericAmplitude>
          <value>105.1</value>
        </genericAmplitude>
        <type>A</type>
        <period>
          <value>0.26</value>
        </period>
        <pickID>smi:local/6e22d10b-a418-483d-9087-25c4e32492a3</pickID>
        <waveformID channelCode="BY" networkCode="NA" stationCode="LSb7"></waveformID>
      </amplitude>
      <amplitude publicID="smi:local/9c812b28-3603-4519-8045-0daac6315a7a">
        <genericAmplitude>
          <value>65.9</value>
        </genericAmplitude>
        <type>A</type>
        <period>
          <value>0.22</value>
        </period>
        <pickID>smi:local/b7d08ec7-9954-49f6-ac8a-3b87fcc01281</pickID>
        <waveformID channelCode="SY" networkCode="NA" stationCode="LSb2"></waveformID>
      </amplitude>
      <amplitude publicID="smi:local/1f6a4605-6af7-49ba-b657-40c7c21054a9">
        <genericAmplitude>
          <value>54.4</value>
        </genericAmplitude>
        <type>A</type>
        <period>
          <value>0.1</value>
        </period>
        <pickID>smi:local/b9371ba9-683f-480d-b4b2-42857aa553c9</pickID>
        <waveformID channelCode="SX" networkCode="NA" stationCode="LSb2"></waveformID>
      </amplitude>
      <amplitude publicID="smi:local/e3dbe89e-57e7-4ac9-99b2-e7bc1bbe17b1">
        <genericAmplitude>
          <value>62.2</value>
        </genericAmplitude>
        <type>A</type>
        <period>
          <value>0.13</value>
        </period>
        <pickID>smi:local/2adfc201-5fba-4641-adcb-ca4ad43e883d</pickID>
        <waveformID channelCode="SY" networkCode="NA" stationCode="LSb3"></waveformID>
      </amplitude>
      <amplitude publicID="smi:local/8eeeec02-7752-4673-8204-a4f0dd9cd395">
        <genericAmplitude>
          <value>98.8</value>
        </genericAmplitude>
        <type>A</type>
        <period>
          <value>0.19</value>
        </period>
        <pickID>smi:local/f23b3ea4-0fea-4563-a25b-2a9db8131f2a</pickID>
        <waveformID channelCode="SX" networkCode="NA" stationCode="LSb3"></waveformID>
      </amplitude>
      <amplitude publicID="smi:local/795e6128-9bcf-4bb7-ad0e-02749b19372e">
        <genericAmplitude>
          <value>161.5</value>
        </genericAmplitude>
        <type>A</type>
        <period>
          <value>0.1</value>
        </period>
        <pickID>smi:local/3f2e64e2-1873-436f-a123-9c53b0163fe9</pickID>
        <waveformID channelCode="SX" networkCode="NA" stationCode="LSb4"></waveformID>
      </amplitude>
      <amplitude publicID="smi:local/f924d02d-bd08-45a1-a20b-286fd2e7c77e">
        <genericAmplitude>
          <value>258.1</value>
        </genericAmplitude>
        <type>A</type>
        <period>
          <value>0.29</value>
        </period>
        <pickID>smi:local/a17c2bdd-574f-4cd9-bbc2-8bd3c7df0434</pickID>
        <waveformID channelCode="SY" networkCode="NA" stationCode="LSb4"></waveformID>
      </amplitude>
      <amplitude publicID="smi:local/bbf9f3b8-3644-453c-89c0-8a90d0bd8117">
        <genericAmplitude>
          <value>23.6</value>
        </genericAmplitude>
        <type>A</type>
        <period>
          <value>0.74</value>
        </period>
        <pickID>smi:local/71ac8661-f05f-4cc2-b902-65cdf94b3dbb</pickID>
        <waveformID channelCode="SX" networkCode="NA" stationCode="LSb1"></waveformID>
      </amplitude>
      <amplitude publicID="smi:local/605c6e14-2e15-4210-bc32-d6cfe45d2dd1">
        <genericAmplitude>
          <value>30.8</value>
        </genericAmplitude>
        <type>A</type>
        <period>
          <value>0.58</value>
        </period>
        <pickID>smi:local/438f99fb-315d-4936-8ba1-2bfa838da10d</pickID>
        <waveformID channelCode="SY" networkCode="NA" stationCode="LSb1"></waveformID>
      </amplitude>
    </event>
    <event publicID="smi:local/8d518ffd-5be5-4f2f-a071-5bc250bf2c1b">
      <preferredOriginID>smi:local/9c8dd0ae-f8b1-4bf6-b498-186131fa6ee0</preferredOriginID>
      <preferredMagnitudeID>smi:local/ca72413f-37a9-42de-b650-884ff64a4537</preferredMagnitudeID>
      <description>
        <text>L </text>
      </description>
      <creationInfo>
        <agencyID>AKR</agencyID>
      </creationInfo>
      <origin publicID="smi:local/9c8dd0ae-f8b1-4bf6-b498-186131fa6ee0">
        <time>
          <value>2008-08-17T19:20:45.600000Z</value>
        </time>
        <latitude>
          <value>37.191</value>
        </latitude>
        <longitude>
          <value>-32.341</value>
        </longitude>
        <depth>
          <value>9300.0</value>
        </depth>
        <comment id="smi:local/0c083288-2b28-458e-af60-f5f016f00963">
          <text>Number of stations=5</text>
        </comment>
        <arrival publicID="smi:local/1cc35880-f588-46e4-a25f-05240e80dad6">
          <pickID>smi:local/87f38af1-e240-4c27-92fd-395afa58f101</pickID>
          <phase>P</phase>
          <azimuth>26.0</azimuth>
          <distance>0.07824097971492955</distance>
          <timeResidual>-0.01</timeResidual>
          <timeWeight>0.0</timeWeight>
        </arrival>
        <arrival publicID="smi:local/b6ab0599-52b8-4ef1-b743-74982c707212">
          <pickID>smi:local/957475b4-ce09-49a3-8b06-b58b41498aca</pickID>
          <phase>S</phase>
          <azimuth>26.0</azimuth>
          <distance>0.07824097971492955</distance>
          <timeResidual>-0.02</timeResidual>
          <timeWeight>0.0</timeWeight>
        </arrival>
        <arrival publicID="smi:local/ee595a08-0fe3-40ec-96d2-14c8682a37b4">
          <pickID>smi:local/160b2744-b6ab-436d-9592-5ec96d7474ba</pickID>
          <phase>P</phase>
          <azimuth>7.0</azimuth>
          <distance>0.10881791431616639</distance>
          <timeResidual>-0.06</timeResidual>
          <timeWeight>0.0</timeWeight>
        </arrival>
        <arrival publicID="smi:local/d390e531-08a2-4913-a05d-693d0554e1be">
          <pickID>smi:local/79702c2a-17b6-4cfa-b11d-002bf6f99283</pickID>
          <phase>S</phase>
          <azimuth>7.0</azimuth>
          <distance>0.10881791431616639</distance>
          <timeResidual>0.33</timeResidual>
          <timeWeight>0.0</timeWeight>
        </arrival>
        <arrival publicID="smi:local/b6ad0240-99bf-494f-aa39-7156a41c5c01">
          <pickID>smi:local/483339f3-658f-40b5-966d-82cc007ece42</pickID>
          <phase>P</phase>
          <azimuth>23.0</azimuth>
          <distance>0.10971723592208511</distance>
          <timeResidual>-0.15</timeResidual>
          <timeWeight>0.0</timeWeight>
        </arrival>
        <arrival publicID="smi:local/a6a9e1bd-98a6-4610-9b62-b4463fa9522c">
          <pickID>smi:local/a4bf6483-5260-4ec8-bf4c-642198ab7c07</pickID>
          <phase>S</phase>
          <azimuth>23.0</azimuth>
          <distance>0.10971723592208511</distance>
          <timeResidual>-0.32</timeResidual>
          <timeWeight>0.0</timeWeight>
        </arrival>
        <arrival publicID="smi:local/7538c966-715b-4577-8a78-1cbb48152292">
          <pickID>smi:local/6db6e8da-cd70-4024-b851-2475c3c244d7</pickID>
          <phase>P</phase>
          <azimuth>41.0</azimuth>
          <distance>0.12140841679902863</distance>
          <timeResidual>0.11</timeResidual>
          <timeWeight>0.0</timeWeight>
        </arrival>
