<?xml version='1.0' encoding='utf-8'?>
<q:quakeml xmlns:q="http://quakeml.org/xmlns/quakeml/1.2" xmlns="http://quakeml.org/xmlns/bed/1.2">
  <eventParameters publicID="smi:local/d25338d7-6705-43bd-a388-a2afd9c43fa7">
    <event publicID="smi:local/71f6995c-09fd-4453-b444-d1cfde56fb8a">
      <preferredOriginID>smi:local/255f2559-2d6e-4a97-aae4-b8544a83b4bf</preferredOriginID>
      <description>
        <text>L </text>
      </description>
      <creationInfo>
        <agencyID>mw</agencyID>
      </creationInfo>
      <origin publicID="smi:local/255f2559-2d6e-4a97-aae4-b8544a83b4bf">
        <time>
          <value>2008-11-12T13:38:36.200000Z</value>
        </time>
        <latitude>
          <value>37.307</value>
        </latitude>
        <longitude>
          <value>-32.268</value>
        </longitude>
        <depth>
          <value>2000.0</value>
        </depth>
        <comment id="smi:local/7121af6d-12cf-4276-8a8f-777a21508010">
          <text>Number of stations=4</text>
        </comment>
        <arrival publicID="smi:local/f2912e20-f5c8-452e-8e5f-45651e984e28">
          <pickID>smi:local/6145607f-2cd9-450f-ab23-5690595321e7</pickID>
          <phase>P</phase>
          <azimuth>332.0</azimuth>
          <distance>0.01618778890653715</distance>
          <timeResidual>-0.19</timeResidual>
          <timeWeight>1.0</timeWeight>
        </arrival>
        <arrival publicID="smi:local/2c87ae8c-5078-4dcb-aba9-760add1f5c50">
          <pickID>smi:local/c2b2605d-25cf-479f-8bdd-5bec38bbd931</pickID>
          <phase>S</phase>
          <azimuth>332.0</azimuth>
          <distance>0.01618778890653715</distance>
          <timeResidual>0.1</timeResidual>
          <timeWeight>0.0</timeWeight>
        </arrival>
        <arrival publicID="smi:local/33fe2920-0493-4270-a84d-a0b4f173a829">
          <pickID>smi:local/6eb2ebab-22a0-411a-a55c-678874922e53</pickID>
          <phase>P</phase>
          <azimuth>225.0</azimuth>
          <distance>0.02212331150560077</distance>
          <timeResidual>0.05</timeResidual>
          <timeWeight>1.0</timeWeight>
        </arrival>
        <arrival publicID="smi:local/3787ec6a-6dbb-4a49-8823-a0d207cf9f19">
          <pickID>smi:local/920a8a85-10a9-401b-aa98-0a80d399c093</pickID>
          <phase>P</phase>
          <azimuth>259.0</azimuth>
          <distance>0.04514594461712027</distance>
          <timeResidual>-0.12</timeResidual>
          <timeWeight>1.0</timeWeight>
        </arrival>
        <arrival publicID="smi:local/dad4fe95-6262-4207-bc44-5d75de159472">
          <pickID>smi:local/3e0f5aee-f6eb-44fb-aa22-57c8395808b2</pickID>
          <phase>P</phase>
          <azimuth>207.0</azimuth>
          <distance>0.05216065314328637</distance>
          <timeResidual>0.09</timeResidual>
          <timeWeight>1.0</timeWeight>
        </arrival>
      </origin>
      <pick publicID="smi:local/6145607f-2cd9-450f-ab23-5690595321e7">
        <time>
          <value>2008-11-12T13:38:37.750000Z</value>
        </time>
        <waveformID channelCode="SZ" networkCode="NA" stationCode="LSb1"></waveformID>
        <backazimuth>
          <value>59.0</value>
        </backazimuth>
        <onset>impulsive</onset>
        <phaseHint>P</phaseHint>
        <polarity>positive</polarity>
        <evaluationMode>manual</evaluationMode>
      </pick>
      <pick publicID="smi:local/c2b2605d-25cf-479f-8bdd-5bec38bbd931">
        <time>
          <value>2008-11-12T13:38:39.469000Z</value>
        </time>
        <waveformID channelCode="SZ" networkCode="NA" stationCode="LSb1"></waveformID>
        <onset>impulsive</onset>
        <phaseHint>S</phaseHint>
        <polarity>undecidable</polarity>
        <evaluationMode>manual</evaluationMode>
      </pick>
      <pick publicID="smi:local/6eb2ebab-22a0-411a-a55c-678874922e53">
        <time>
          <value>2008-11-12T13:38:38.284000Z</value>
        </time>
        <waveformID channelCode="SZ" networkCode="NA" stationCode="LSb3"></waveformID>
        <onset>impulsive</onset>
        <phaseHint>P</phaseHint>
        <polarity>undecidable</polarity>
        <evaluationMode>manual</evaluationMode>
      </pick>
      <pick publicID="smi:local/920a8a85-10a9-401b-aa98-0a80d399c093">
        <time>
          <value>2008-11-12T13:38:39.726000Z</value>
        </time>
        <waveformID channelCode="SZ" networkCode="NA" stationCode="LSb2"></waveformID>
        <onset>impulsive</onset>
        <phaseHint>P</phaseHint>
        <polarity>positive</polarity>
        <evaluationMode>manual</evaluationMode>
      </pick>
      <pick publicID="smi:local/3e0f5aee-f6eb-44fb-aa22-57c8395808b2">
        <time>
          <value>2008-11-12T13:38:40.405000Z</value>
        </time>
        <waveformID channelCode="SZ" networkCode="NA" stationCode="LSb7"></waveformID>
        <onset>impulsive</onset>
        <phaseHint>P</phaseHint>
        <polarity>negative</polarity>
        <evaluationMode>manual</evaluationMode>
      </pick>
    </event>
    <event publicID="smi:local/414ca196-2881-4ff5-aad6-39c374b0e647">
      <preferredOriginID>smi:local/e3677aea-e97e-4a6f-93a8-e063626a6154</preferredOriginID>
      <description>
        <text>L </text>
      </description>
      <creationInfo>
        <agencyID>mw</agencyID>
      </creationInfo>
      <origin publicID="smi:local/e3677aea-e97e-4a6f-93a8-e063626a6154">
        <time>
          <value>2008-12-16T01:01:52.400000Z</value>
        </time>
        <latitude>
          <value>37.293</value>
        </latitude>
        <longitude>
          <value>-32.275</value>
        </longitude>
        <depth>
          <value>2000.0</value>
        </depth>
        <comment id="smi:local/7c3c6144-a5b3-47e6-aa34-dec7899d0c4d">
          <text>Number of stations=5</text>
        </comment>
        <arrival publicID="smi:local/8aae4dc1-f3bc-4b6f-9ddc-ac19187a5922">
          <pickID>smi:local/ae510243-b712-476e-82cc-2a95fbe99c16</pickID>
          <phase>Pg</phase>
          <azimuth>262.0</azimuth>
          <distance>0.010072401986289782</distance>
          <timeResidual>-0.0</timeResidual>
          <timeWeight>1.0</timeWeight>
        </arrival>
        <arrival publicID="smi:local/c639ae92-ac5a-47e3-b607-ac827780add1">
          <pickID>smi:local/a749c5eb-4431-42c5-98d3-05327aecde6a</pickID>
          <phase>Pg</phase>
          <azimuth>356.0</azimuth>
          <distance>0.028508494907623756</distance>
          <timeResidual>0.08</timeResidual>
          <timeWeight>1.0</timeWeight>
        </arrival>
        <arrival publicID="smi:local/fd4cdb2d-cd03-44a0-9ecd-abed1df5b4b2">
          <pickID>smi:local/13ad3638-34ac-4f19-a210-508c3db3b87e</pickID>
          <phase>S</phase>
          <azimuth>356.0</azimuth>
          <distance>0.028508494907623756</distance>
          <timeResidual>0.03</timeResidual>
          <timeWeight>0.0</timeWeight>
        </arrival>
        <arrival publicID="smi:local/b0d7b5c1-907b-42e9-ba26-7a37647049a0">
          <pickID>smi:local/bcb1c0cb-7078-4e03-8a8a-246347732ba6</pickID>
          <phase>Pg</phase>
          <azimuth>111.0</azimuth>
          <distance>0.02940781651354249</distance>
          <timeResidual>-0.06</timeResidual>
          <timeWeight>0.0</timeWeight>
        </arrival>
        <arrival publicID="smi:local/aa440b5b-6f89-49da-8883-bba1a7bc924f">
          <pickID>smi:local/9a339c52-2fbf-45a3-91cc-25bd6e922337</pickID>
          <phase>Pg</phase>
          <azimuth>208.0</azimuth>
          <distance>0.036962118003259825</distance>
          <timeResidual>0.15</timeResidual>
          <timeWeight>1.0</timeWeight>
        </arrival>
        <arrival publicID="smi:local/033522a2-a713-496c-95f1-649862bd7620">
          <pickID>smi:local/1ee157cb-8cc8-4094-81a8-8625648f7541</pickID>
          <phase>Pg</phase>
          <azimuth>278.0</azimuth>
          <distance>0.03885069337568916</distance>
          <timeResidual>-0.18</timeResidual>
          <timeWeight>1.0</timeWeight>
        </arrival>
      </origin>
      <pick publicID="smi:local/ae510243-b712-476e-82cc-2a95fbe99c16">
        <time>
          <value>2008-12-16T01:01:53.788000Z</value>
        </time>
        <waveformID channelCode="SZ" networkCode="NA" stationCode="LSb3"></waveformID>
        <onset>impulsive</onset>
        <phaseHint>Pg</phaseHint>
        <polarity>undecidable</polarity>
        <evaluationMode>manual</evaluationMode>
      </pick>
      <pick publicID="smi:local/a749c5eb-4431-42c5-98d3-05327aecde6a">
        <time>
          <value>2008-12-16T01:01:54.921000Z</value>
        </time>
        <waveformID channelCode="SZ" networkCode="NA" stationCode="LSb1"></waveformID>
        <onset>impulsive</onset>
        <phaseHint>Pg</phaseHint>
        <polarity>positive</polarity>
        <evaluationMode>manual</evaluationMode>
      </pick>
      <pick publicID="smi:local/13ad3638-34ac-4f19-a210-508c3db3b87e">
        <time>
          <value>2008-12-16T01:01:56.896000Z</value>
        </time>
        <waveformID channelCode="SZ" networkCode="NA" stationCode="LSb1"></waveformID>
        <onset>impulsive</onset>
        <phaseHint>S</phaseHint>
        <polarity>undecidable</polarity>
        <evaluationMode>manual</evaluationMode>
      </pick>
      <pick publicID="smi:local/bcb1c0cb-7078-4e03-8a8a-246347732ba6">
        <time>
          <value>2008-12-16T01:01:54.918000Z</value>
        </time>
        <waveformID channelCode="SZ" networkCode="NA" stationCode="LSb4"></waveformID>
        <onset>impulsive</onset>
        <phaseHint>Pg</phaseHint>
        <polarity>undecidable</polarity>
        <evaluationMode>manual</evaluationMode>
      </pick>
      <pick publicID="smi:local/9a339c52-2fbf-45a3-91cc-25bd6e922337">
        <time>
          <value>2008-12-16T01:01:55.608000Z</value>
        </time>
        <waveformID channelCode="SZ" networkCode="NA" stationCode="LSb7"></waveformID>
        <onset>impulsive</onset>
        <phaseHint>Pg</phaseHint>
        <polarity>positive</polarity>
        <evaluationMode>manual</evaluationMode>
      </pick>
      <pick publicID="smi:local/1ee157cb-8cc8-4094-81a8-8625648f7541">
        <time>
          <value>2008-12-16T01:01:55.416000Z</value>
        </time>
        <waveformID channelCode="SZ" networkCode="NA" stationCode="LSb2"></waveformID>
        <onset>impulsive</onset>
        <phaseHint>Pg</phaseHint>
        <polarity>undecidable</polarity>
        <evaluationMode>manual</evaluationMode>
      </pick>
    </event>
    <event publicID="smi:local/8a780a13-fdc8-48e8-a33e-e3d78d17433a">
      <preferredOriginID>smi:local/7bcaaf38-8362-41ee-8446-85ae695d99cd</preferredOriginID>
      <description>
        <text>L </text>
      </description>
      <creationInfo>
        <agencyID>mw</agencyID>
      </creationInfo>
      <origin publicID="smi:local/7bcaaf38-8362-41ee-8446-85ae695d99cd">
        <time>
          <value>2009-01-01T04:02:47.000000Z</value>
        </time>
        <latitude>
          <value>37.268</value>
        </latitude>
        <longitude>
          <value>-32.271</value>
        </longitude>
        <depth>
          <value>0.0</value>
        </depth>
        <comment id="smi:local/ee78e25a-7ea6-4f6b-9b27-a697d59c11db">
          <text>Number of stations=5</text>
        </comment>
        <arrival publicID="smi:local/ea9c8260-204f-4ef5-9c68-98a9ebec9119">
          <pickID>smi:local/fea3bc99-b9e3-419d-b0bd-25efdce7ae5f</pickID>
          <phase>P</phase>
          <azimuth>251.0</azimuth>
          <distance>0.0220333793450089</distance>
          <timeResidual>-0.58</timeResidual>
          <timeWeight>0.0</timeWeight>
        </arrival>
        <arrival publicID="smi:local/44a3ef8c-16af-4047-aac0-f6423783b0ac">
          <pickID>smi:local/7a6a0769-6d28-43c9-8a6f-59ce50306694</pickID>
          <phase>P</phase>
          <azimuth>331.0</azimuth>
          <distance>0.027519241141113156</distance>
          <timeResidual>0.81</timeResidual>
          <timeWeight>0.0</timeWeight>
        </arrival>
        <arrival publicID="smi:local/407e27b0-f7f0-48ad-8639-91190300dd24">
          <pickID>smi:local/84d1df4c-3848-4828-bc6f-3af2d9c556b5</pickID>
          <phase>P</phase>
          <azimuth>58.0</azimuth>
          <distance>0.028418562747031886</distance>
          <timeResidual>-0.15</timeResidual>
          <timeWeight>0.0</timeWeight>
        </arrival>
        <arrival publicID="smi:local/7aac8033-0a59-47f2-a281-632548d82766">
          <pickID>smi:local/1c622970-0f0b-4d3b-91f1-cf4fa272d0f2</pickID>
          <phase>P</phase>
          <azimuth>306.0</azimuth>
          <distance>0.05198078882210263</distance>
          <timeResidual>0.17</timeResidual>
          <timeWeight>0.0</timeWeight>
        </arrival>
        <arrival publicID="smi:local/cd15d197-279c-48d1-a443-889aadf243ca">
          <pickID>smi:local/5ab6369f-152b-4797-b512-d12a0cb3c160</pickID>
          <phase>P</phase>
          <azimuth>355.0</azimuth>
          <distance>0.05413916067630757</distance>
          <timeResidual>0.58</timeResidual>
          <timeWeight>0.0</timeWeight>
        </arrival>
        <arrival publicID="smi:local/861bd9a9-05d4-4bef-a778-d29399fc70f7">
          <pickID>smi:local/6c645aa7-fee4-409b-adb4-2d3623c32352</pickID>
          <phase>S</phase>
          <azimuth>355.0</azimuth>
          <distance>0.05413916067630757</distance>
          <timeResidual>-0.82</timeResidual>
          <timeWeight>0.0</timeWeight>
        </arrival>
      </origin>
      <pick publicID="smi:local/fea3bc99-b9e3-419d-b0bd-25efdce7ae5f">
        <time>
          <value>2009-01-01T04:02:48.067000Z</value>
        </time>
        <waveformID channelCode="SZ" networkCode="NA" stationCode="LSb7"></waveformID>
        <onset>impulsive</onset>
        <phaseHint>P</phaseHint>
        <polarity>undecidable</polarity>
        <evaluationMode>manual</evaluationMode>
      </pick>
      <pick publicID="smi:local/7a6a0769-6d28-43c9-8a6f-59ce50306694">
        <time>
          <value>2009-01-01T04:02:49.869000Z</value>
        </time>
        <waveformID channelCode="SZ" networkCode="NA" stationCode="LSb3"></waveformID>
        <onset>impulsive</onset>
        <phaseHint>P</phaseHint>
        <polarity>undecidable</polarity>
        <evaluationMode>manual</evaluationMode>
      </pick>
      <pick publicID="smi:local/84d1df4c-3848-4828-bc6f-3af2d9c556b5">
        <time>
          <value>2009-01-01T04:02:48.968000Z</value>
        </time>
        <waveformID channelCode="SZ" networkCode="NA" stationCode="LSb4"></waveformID>
        <onset>impulsive</onset>
        <phaseHint>P</phaseHint>
        <polarity>undecidable</polarity>
        <evaluationMode>manual</evaluationMode>
      </pick>
      <pick publicID="smi:local/1c622970-0f0b-4d3b-91f1-cf4fa272d0f2">
        <time>
          <value>2009-01-01T04:02:51.035000Z</value>
        </time>
        <waveformID channelCode="SZ" networkCode="NA" stationCode="LSb2"></waveformID>
        <onset>impulsive</onset>
        <phaseHint>P</phaseHint>
        <polarity>undecidable</polarity>
        <evaluationMode>manual</evaluationMode>
      </pick>
      <pick publicID="smi:local/5ab6369f-152b-4797-b512-d12a0cb3c160">
        <time>
          <value>2009-01-01T04:02:51.605000Z</value>
        </time>
        <waveformID channelCode="SZ" networkCode="NA" stationCode="LSb1"></waveformID>
        <onset>impulsive</onset>
        <phaseHint>P</phaseHint>
        <polarity>undecidable</polarity>
        <evaluationMode>manual</evaluationMode>
      </pick>
      <pick publicID="smi:local/6c645aa7-fee4-409b-adb4-2d3623c32352">
        <time>
          <value>2009-01-01T04:02:53.539000Z</value>
        </time>
        <waveformID channelCode="SZ" networkCode="NA" stationCode="LSb1"></waveformID>
        <onset>impulsive</onset>
        <phaseHint>S</phaseHint>
        <polarity>undecidable</polarity>
        <evaluationMode>manual</evaluationMode>
      </pick>
    </event>
    <event publicID="smi:local/81270bb4-af7a-4169-b6e1-4444060793bd">
      <preferredOriginID>smi:local/155ff6bb-19b3-476e-88b2-670a235fb5fe</preferredOriginID>
      <description>
        <text>L </text>
      </description>
      <creationInfo>
        <agencyID>mw</agencyID>
      </creationInfo>
      <origin publicID="smi:local/155ff6bb-19b3-476e-88b2-670a235fb5fe">
        <time>
          <value>2009-01-04T09:25:23.600000Z</value>
        </time>
        <latitude>
          <value>37.281</value>
        </latitude>
        <longitude>
          <value>-32.304</value>
        </longitude>
        <depth>
          <value>0.0</value>
        </depth>
        <comment id="smi:local/1ca66729-3434-4706-a621-64dac647d0db">
          <text>Number of stations=4</text>
        </comment>
        <arrival publicID="smi:local/dedf237e-5b1b-4013-b271-81b8db440616">
          <pickID>smi:local/a67886fa-cae3-4fee-a64f-f190b9a7b04e</pickID>
          <phase>P</phase>
          <azimuth>51.0</azimuth>
          <distance>0.01708711051245588</distance>
          <timeResidual>0.37</timeResidual>
          <timeWeight>0.0</timeWeight>
        </arrival>
        <arrival publicID="smi:local/c8448ad9-cc3b-4ffd-9bd4-08b3d52dbd68">
          <pickID>smi:local/8ea156b0-3a0c-42a4-b8f2-a0d8a73b78e6</pickID>
          <phase>P</phase>
          <azimuth>165.0</azimuth>
          <distance>0.021044125578498295</distance>
          <timeResidual>-0.21</timeResidual>
          <timeWeight>0.0</timeWeight>
        </arrival>
        <arrival publicID="smi:local/f9db534c-b678-443f-9a2f-25b050693fdd">
          <pickID>smi:local/a7d2f5b1-5abb-41c3-be18-82b699871db8</pickID>
          <phase>P</phase>
          <azimuth>319.0</azimuth>
          <distance>0.02329242959329512</distance>
          <timeResidual>0.01</timeResidual>
          <timeWeight>0.0</timeWeight>
        </arrival>
        <arrival publicID="smi:local/a67ee4a5-2e02-4b18-b8e7-c8e6c5df3eed">
          <pickID>smi:local/bf6de3d3-eb5f-4677-af46-51e556b68869</pickID>
          <phase>P</phase>
          <azimuth>28.0</azimuth>
          <distance>0.04595533406244713</distance>
          <timeResidual>0.3</timeResidual>
          <timeWeight>0.0</timeWeight>
        </arrival>
        <arrival publicID="smi:local/5c3251bd-4c09-422a-a296-5c25a04cd243">
          <pickID>smi:local/de900924-4a0c-4007-a498-069b43e9fa72</pickID>
          <phase>S</phase>
          <azimuth>28.0</azimuth>
          <distance>0.04595533406244713</distance>
          <timeResidual>-0.47</timeResidual>
          <timeWeight>0.0</timeWeight>
        </arrival>
      </origin>
      <pick publicID="smi:local/a67886fa-cae3-4fee-a64f-f190b9a7b04e">
        <time>
          <value>2009-01-04T09:25:25.228000Z</value>
        </time>
        <waveformID channelCode="SZ" networkCode="NA" stationCode="LSb3"></waveformID>
        <onset>impulsive</onset>
        <phaseHint>P</phaseHint>
        <polarity>undecidable</polarity>
        <evaluationMode>manual</evaluationMode>
      </pick>
      <pick publicID="smi:local/8ea156b0-3a0c-42a4-b8f2-a0d8a73b78e6">
        <time>
          <value>2009-01-04T09:25:24.934000Z</value>
        </time>
        <waveformID channelCode="SZ" networkCode="NA" stationCode="LSb7"></waveformID>
        <onset>impulsive</onset>
        <phaseHint>P</phaseHint>
        <polarity>undecidable</polarity>
        <evaluationMode>manual</evaluationMode>
      </pick>
      <pick publicID="smi:local/a7d2f5b1-5abb-41c3-be18-82b699871db8">
        <time>
          <value>2009-01-04T09:25:25.323000Z</value>
        </time>
        <waveformID channelCode="SZ" networkCode="NA" stationCode="LSb2"></waveformID>
        <onset>impulsive</onset>
        <phaseHint>P</phaseHint>
        <polarity>undecidable</polarity>
        <evaluationMode>manual</evaluationMode>
      </pick>
      <pick publicID="smi:local/bf6de3d3-eb5f-4677-af46-51e556b68869">
        <time>
          <value>2009-01-04T09:25:27.282000Z</value>
